{
  "type": "FeatureCollection",
  "features": [
    {
      "type": "Feature",
      "properties": {
        "norad_id": 41877,
        "name": "RESOURCESAT-2A",
        "group": "resource",
        "lat": -5.964656671063873,
        "lon": -131.82231615004298,
        "alt_km": 823.8730503044872,
        "timestamp": "2025-12-05T04:52:14.979266+00:00",
        "meta_object_name": "RESOURCESAT-2A",
        "meta_object_id": "2016-074A",
        "meta_epoch": "2025-12-04T17:51:49.400064",
        "meta_mean_motion": 14.21594371,
        "meta_eccentricity": 0.0001151,
        "meta_inclination": 98.7766,
        "meta_ra_of_asc_node": 48.6466,
        "meta_arg_of_pericenter": 294.7687,
        "meta_mean_anomaly": 65.337,
        "meta_ephemeris_type": 0,
        "meta_classification_type": "U",
        "meta_norad_cat_id": 41877,
        "meta_element_set_no": 999,
        "meta_rev_at_epoch": 46667,
        "meta_bstar": 0.00018263,
        "meta_mean_motion_dot": 3.56e-06,
        "meta_mean_motion_ddot": 0,
        "tle_line1": "1 41877U 16074A   25338.74432176  .00000356  00000+0  18263-3 0  9996",
        "tle_line2": "2 41877  98.7766  48.6466 0001151 294.7687  65.3370 14.21594371466677"
      },
      "geometry": {
        "type": "Point",
        "coordinates": [
          -131.82231615004298,
          -5.964656671063873
        ]
      }
    },
    {
      "type": "Feature",
      "properties": {
        "norad_id": 41948,
        "name": "CARTOSAT-2D",
        "group": "resource",
        "lat": 67.36582143008077,
        "lon": 18.55092034074238,
        "alt_km": 503.21339268538304,
        "timestamp": "2025-12-05T04:52:14.979275+00:00",
        "meta_object_name": "CARTOSAT-2D",
        "meta_object_id": "2017-008A",
        "meta_epoch": "2025-12-04T17:30:14.438592",
        "meta_mean_motion": 15.19138978,
        "meta_eccentricity": 0.0003981,
        "meta_inclination": 97.4402,
        "meta_ra_of_asc_node": 36.3497,
        "meta_arg_of_pericenter": 189.9755,
        "meta_mean_anomaly": 170.1402,
        "meta_ephemeris_type": 0,
        "meta_classification_type": "U",
        "meta_norad_cat_id": 41948,
        "meta_element_set_no": 999,
        "meta_rev_at_epoch": 48805,
        "meta_bstar": 0.00088503,
        "meta_mean_motion_dot": 0.00018561,
        "meta_mean_motion_ddot": 0,
        "tle_line1": "1 41948U 17008A   25338.72933378  .00018561  00000+0  88503-3 0  9992",
        "tle_line2": "2 41948  97.4402  36.3497 0003981 189.9755 170.1402 15.19138978488053"
      },
      "geometry": {
        "type": "Point",
        "coordinates": [
          18.55092034074238,
          67.36582143008077
        ]
      }
    },
    {
      "type": "Feature",
      "properties": {
        "norad_id": 42063,
        "name": "SENTINEL-2B",
        "group": "resource",
        "lat": -80.03497235869352,
        "lon": 172.60132866076177,
        "alt_km": 797.136892662812,
        "timestamp": "2025-12-05T04:52:14.979283+00:00",
        "meta_object_name": "SENTINEL-2B",
        "meta_object_id": "2017-013A",
        "meta_epoch": "2025-12-04T17:33:59.457024",
        "meta_mean_motion": 14.30811257,
        "meta_eccentricity": 0.0001123,
        "meta_inclination": 98.5726,
        "meta_ra_of_asc_node": 51.2901,
        "meta_arg_of_pericenter": 98.1061,
        "meta_mean_anomaly": 262.0249,
        "meta_ephemeris_type": 0,
        "meta_classification_type": "U",
        "meta_norad_cat_id": 42063,
        "meta_element_set_no": 999,
        "meta_rev_at_epoch": 45683,
        "meta_bstar": 0.00014712,
        "meta_mean_motion_dot": 3.42e-06,
        "meta_mean_motion_ddot": 0,
        "tle_line1": "1 42063U 17013A   25338.73193816  .00000342  00000+0  14712-3 0  9992",
        "tle_line2": "2 42063  98.5726  51.2901 0001123  98.1061 262.0249 14.30811257456837"
      },
      "geometry": {
        "type": "Point",
        "coordinates": [
          172.60132866076177,
          -80.03497235869352
        ]
      }
    },
    {
      "type": "Feature",
      "properties": {
        "norad_id": 42767,
        "name": "CARTOSAT-2E",
        "group": "resource",
        "lat": -21.587009039667404,
        "lon": 39.858889537539255,
        "alt_km": 512.8776690624445,
        "timestamp": "2025-12-05T04:52:14.979292+00:00",
        "meta_object_name": "CARTOSAT-2E",
        "meta_object_id": "2017-036C",
        "meta_epoch": "2025-12-04T17:54:03.564576",
        "meta_mean_motion": 15.19197961,
        "meta_eccentricity": 0.0002303,
        "meta_inclination": 97.4571,
        "meta_ra_of_asc_node": 36.437,
        "meta_arg_of_pericenter": 278.6097,
        "meta_mean_anomaly": 81.4876,
        "meta_ephemeris_type": 0,
        "meta_classification_type": "U",
        "meta_norad_cat_id": 42767,
        "meta_element_set_no": 999,
        "meta_rev_at_epoch": 46862,
        "meta_bstar": 0.00055506,
        "meta_mean_motion_dot": 0.00011623,
        "meta_mean_motion_ddot": 0,
        "tle_line1": "1 42767U 17036C   25338.74587459  .00011623  00000+0  55506-3 0  9999",
        "tle_line2": "2 42767  97.4571  36.4370 0002303 278.6097  81.4876 15.19197961468620"
      },
      "geometry": {
        "type": "Point",
        "coordinates": [
          39.858889537539255,
          -21.587009039667404
        ]
      }
    },
    {
      "type": "Feature",
      "properties": {
        "norad_id": 42920,
        "name": "FORMOSAT-5",
        "group": "resource",
        "lat": 77.26164962880148,
        "lon": 13.767692228960962,
        "alt_km": 718.6735351814978,
        "timestamp": "2025-12-05T04:52:14.979310+00:00",
        "meta_object_name": "FORMOSAT-5",
        "meta_object_id": "2017-049A",
        "meta_epoch": "2025-12-04T15:15:44.658720",
        "meta_mean_motion": 14.50997918,
        "meta_eccentricity": 0.0010241,
        "meta_inclination": 98.2461,
        "meta_ra_of_asc_node": 53.1154,
        "meta_arg_of_pericenter": 322.6945,
        "meta_mean_anomaly": 37.3538,
        "meta_ephemeris_type": 0,
        "meta_classification_type": "U",
        "meta_norad_cat_id": 42920,
        "meta_element_set_no": 999,
        "meta_rev_at_epoch": 43846,
        "meta_bstar": 0.00014417,
        "meta_mean_motion_dot": 5.26e-06,
        "meta_mean_motion_ddot": 0,
        "tle_line1": "1 42920U 17049A   25338.63593355  .00000526  00000+0  14417-3 0  9990",
        "tle_line2": "2 42920  98.2461  53.1154 0010241 322.6945  37.3538 14.50997918438464"
      },
      "geometry": {
        "type": "Point",
        "coordinates": [
          13.767692228960962,
          77.26164962880148
        ]
      }
    },
    {
      "type": "Feature",
      "properties": {
        "norad_id": 42969,
        "name": "SENTINEL-5P",
        "group": "resource",
        "lat": -66.89177685307433,
        "lon": 76.62682179718169,
        "alt_km": 834.8645628698596,
        "timestamp": "2025-12-05T04:52:14.979320+00:00",
        "meta_object_name": "SENTINEL-5P",
        "meta_object_id": "2017-064A",
        "meta_epoch": "2025-12-04T14:10:13.418112",
        "meta_mean_motion": 14.19514284,
        "meta_eccentricity": 9.45e-05,
        "meta_inclination": 98.7771,
        "meta_ra_of_asc_node": 277.2473,
        "meta_arg_of_pericenter": 86.0415,
        "meta_mean_anomaly": 274.0869,
        "meta_ephemeris_type": 0,
        "meta_classification_type": "U",
        "meta_norad_cat_id": 42969,
        "meta_element_set_no": 999,
        "meta_rev_at_epoch": 42195,
        "meta_bstar": 0.00010752,
        "meta_mean_motion_dot": 1.82e-06,
        "meta_mean_motion_ddot": 0,
        "tle_line1": "1 42969U 17064A   25338.59043308  .00000182  00000+0  10752-3 0  9999",
        "tle_line2": "2 42969  98.7771 277.2473 0000945  86.0415 274.0869 14.19514284421951"
      },
      "geometry": {
        "type": "Point",
        "coordinates": [
          76.62682179718169,
          -66.89177685307433
        ]
      }
    },
    {
      "type": "Feature",
      "properties": {
        "norad_id": 42987,
        "name": "SKYSAT-C11",
        "group": "resource",
        "lat": 36.26743699613546,
        "lon": -58.00654594944819,
        "alt_km": 422.566066160176,
        "timestamp": "2025-12-05T04:52:14.979330+00:00",
        "meta_object_name": "SKYSAT-C11",
        "meta_object_id": "2017-068A",
        "meta_epoch": "2025-12-04T08:04:18.175008",
        "meta_mean_motion": 15.46918857,
        "meta_eccentricity": 9.37e-05,
        "meta_inclination": 97.4136,
        "meta_ra_of_asc_node": 115.6241,
        "meta_arg_of_pericenter": 111.7311,
        "meta_mean_anomaly": 248.4038,
        "meta_ephemeris_type": 0,
        "meta_classification_type": "U",
        "meta_norad_cat_id": 42987,
        "meta_element_set_no": 999,
        "meta_rev_at_epoch": 45301,
        "meta_bstar": 0.00086034,
        "meta_mean_motion_dot": 0.00043399,
        "meta_mean_motion_ddot": 0,
        "tle_line1": "1 42987U 17068A   25338.33632147  .00043399  00000+0  86034-3 0  9993",
        "tle_line2": "2 42987  97.4136 115.6241 0000937 111.7311 248.4038 15.46918857453012"
      },
      "geometry": {
        "type": "Point",
        "coordinates": [
          -58.00654594944819,
          36.26743699613546
        ]
      }
    }
  ]
}